[{"OBJECT_NAME":"JILIN-1 GAOFEN 03D50","OBJECT_ID":"2022-167J","EPOCH":"2026-03-09T22:35:59.947584","MEAN_MOTION":15.32279726,"ECCENTRICITY":0.00065764,"INCLINATION":97.6731,"RA_OF_ASC_NODE":232.9458,"ARG_OF_PERICENTER":101.1473,"MEAN_ANOMALY":259.0507,"EPHEMERIS_TYPE":0,"CLASSIFICATION_TYPE":"U","NORAD_CAT_ID":54690,"ELEMENT_SET_NO":999,"REV_AT_EPOCH":18014,"BSTAR":0.00049467973,"MEAN_MOTION_DOT":0.00015359,"MEAN_MOTION_DDOT":0},{"OBJECT_NAME":"STARLINK-34896","OBJECT_ID":"2025-247Z","EPOCH":"2026-03-09T14:42:05.915808","MEAN_MOTION":15.30171297,"ECCENTRICITY":0.0001243,"INCLINATION":53.1588,"RA_OF_ASC_NODE":191.6684,"ARG_OF_PERICENTER":79.191,"MEAN_ANOMALY":280.9231,"EPHEMERIS_TYPE":0,"CLASSIFICATION_TYPE":"U","NORAD_CAT_ID":66288,"ELEMENT_SET_NO":999,"REV_AT_EPOCH":2102,"BSTAR":0.00094151,"MEAN_MOTION_DOT":0.00027604,"MEAN_MOTION_DDOT":0}]
